[{"OBJECT_NAME":"STARLINK-31920","OBJECT_ID":"2024-100Y","EPOCH":"2026-03-09T22:00:01.999584","MEAN_MOTION":15.33615653,"ECCENTRICITY":0.00055131,"INCLINATION":42.9978,"RA_OF_ASC_NODE":90.9988,"ARG_OF_PERICENTER":118.6152,"MEAN_ANOMALY":56.7253,"EPHEMERIS_TYPE":0,"CLASSIFICATION_TYPE":"U","NORAD_CAT_ID":59907,"ELEMENT_SET_NO":999,"REV_AT_EPOCH":580,"BSTAR":0.0037091852,"MEAN_MOTION_DOT":0.00124969,"MEAN_MOTION_DDOT":0},{"OBJECT_NAME":"FLOCK 4BE-17","OBJECT_ID":"2024-149AA","EPOCH":"2026-03-09T18:14:06.789984","MEAN_MOTION":15.36654618,"ECCENTRICITY":0.00023553,"INCLINATION":97.381,"RA_OF_ASC_NODE":151.5565,"ARG_OF_PERICENTER":232.0178,"MEAN_ANOMALY":128.0854,"EPHEMERIS_TYPE":0,"CLASSIFICATION_TYPE":"U","NORAD_CAT_ID":60492,"ELEMENT_SET_NO":999,"REV_AT_EPOCH":8697,"BSTAR":0.00051180052,"MEAN_MOTION_DOT":0.00018261,"MEAN_MOTION_DDOT":0}]
